{
  "norad_id": 58153,
  "name": "STARLINK-30831",
  "history": [
    {
      "epoch": "2026-03-28T12:55:47.504064Z",
      "apogee_km": 476.0235002853369,
      "perigee_km": 474.4760055565275,
      "latitude_deg": 5.885332534932967e-05,
      "longitude_deg": 112.26396388937434,
      "height_km": 476.01992010923743,
      "semi_major_axis_km": 6853.386752920932,
      "eccentricity": 0.0001129,
      "inclination_deg": 53.1599,
      "raan_deg": 132.1696,
      "arg_perigee_deg": 80.4704,
      "mean_anomaly_deg": 279.6425,
      "mean_motion_rev_day": 15.30188384
    }
  ]
}